H1 CPF 01  gfz 2021 12 23 01  8571 tandemx   
H2 1003001  6202 36605    2021 12 23 00 59 42 2021 12 28 00 00 42   120 1 1  0 0 0
H9
10 0 59571  86382.000000  0     637784.148   4546572.238  -5143611.452
10 0 59572    102.000000  0     748425.835   3817479.780  -5692610.389
10 0 59572    222.000000  0     832727.618   3020437.572  -6142123.586
10 0 59572    342.000000  0     888175.536   2169805.288  -6484387.697
10 0 59572    462.000000  0     913014.913   1280877.517  -6713504.007
10 0 59572    582.000000  0     906292.403    369610.676  -6825530.310
10 0 59572    702.000000  0     867880.314   -547659.171  -6818541.623
10 0 59572    822.000000  0     798482.227  -1454503.336  -6692658.618
10 0 59572    942.000000  0     699620.338  -2334686.342  -6450044.262
10 0 59572   1062.000000  0     573605.189  -3172448.576  -6094872.445
10 0 59572   1182.000000  0     423486.649  -3952785.885  -5633265.322
10 0 59572   1302.000000  0     252988.077  -4661717.401  -5073196.824
10 0 59572   1422.000000  0      66424.616  -5286538.558  -4424366.686
10 0 59572   1542.000000  0    -131394.136  -5816055.989  -3698043.733
10 0 59572   1662.000000  0    -335274.693  -6240798.162  -2906878.832
10 0 59572   1782.000000  0    -539761.447  -6553196.728  -2064691.085
10 0 59572   1902.000000  0    -739267.107  -6747735.202  -1186228.927
10 0 59572   2022.000000  0    -928208.502  -6821058.506   -286909.560
10 0 59572   2142.000000  0   -1101144.492  -6772040.063    617456.768
10 0 59572   2262.000000  0   -1252912.766  -6601805.086   1510951.773
10 0 59572   2382.000000  0   -1378761.951  -6313708.804   2377838.405
10 0 59572   2502.000000  0   -1474475.059  -5913268.904   3202847.376
10 0 59572   2622.000000  0   -1536481.066  -5408054.377   3971454.154
10 0 59572   2742.000000  0   -1561951.118  -4807533.346   4670139.254
10 0 59572   2862.000000  0   -1548878.615  -4122886.796   5286627.036
10 0 59572   2982.000000  0   -1496141.309  -3366791.371   5810101.691
10 0 59572   3102.000000  0   -1403542.838  -2553174.178   6231393.534
10 0 59572   3222.000000  0   -1271832.888  -1696949.494   6543132.589
10 0 59572   3342.000000  0   -1102707.306   -813742.306   6739871.593
10 0 59572   3462.000000  0    -898788.572     80399.331   6818175.838
10 0 59572   3582.000000  0    -663585.881    969295.694   6776679.023
10 0 59572   3702.000000  0    -401434.484   1836927.733   6616106.207
10 0 59572   3822.000000  0    -117415.779   2667725.496   6339261.803
10 0 59572   3942.000000  0     182740.264   3446847.473   5950983.414
10 0 59572   4062.000000  0     492768.256   4160447.759   5458062.503
10 0 59572   4182.000000  0     805995.145   4795926.221   4869131.379
10 0 59572   4302.000000  0    1115480.752   5342157.767   4194517.715
10 0 59572   4422.000000  0    1414166.285   5789694.470   3446067.354
10 0 59572   4542.000000  0    1695030.820   6130939.509   2636941.870
10 0 59572   4662.000000  0    1951252.160   6360287.413   1781383.467
10 0 59572   4782.000000  0    2176363.603   6474222.926    894459.324
10 0 59572   4902.000000  0    2364407.153   6471377.627     -8211.372
10 0 59572   5022.000000  0    2510076.684   6352543.461   -910740.024
10 0 59572   5142.000000  0    2608848.775   6120643.797  -1797256.311
10 0 59572   5262.000000  0    2657098.017   5780661.946  -2652194.627
10 0 59572   5382.000000  0    2652193.500   5339529.343  -3460573.653
10 0 59572   5502.000000  0    2592573.979   4805975.128  -4208262.596
10 0 59572   5622.000000  0    2477799.606   4190342.792  -4882227.102
10 0 59572   5742.000000  0    2308580.056   3504379.799  -5470751.258
10 0 59572   5862.000000  0    2086779.500   2761005.901  -5963633.125
10 0 59572   5982.000000  0    1815398.035   1974064.087  -6352351.650
10 0 59572   6102.000000  0    1498530.563   1158060.577  -6630201.712
10 0 59572   6222.000000  0    1141305.238    327899.278  -6792399.076
10 0 59572   6342.000000  0     749800.237   -501386.363  -6836154.778
10 0 59572   6462.000000  0     330941.015  -1314900.342  -6760716.801
10 0 59572   6582.000000  0    -107619.163  -2098144.094  -6567380.174
10 0 59572   6702.000000  0    -557634.756  -2837267.706  -6259468.591
10 0 59572   6822.000000  0   -1010419.120  -3519311.863  -5842284.181
10 0 59572   6942.000000  0   -1457007.237  -4132433.337  -5323024.933
10 0 59572   7062.000000  0   -1888328.886  -4666112.853  -4710672.684
10 0 59572   7182.000000  0   -2295389.922  -5111342.091  -4015849.284
10 0 59572   7302.000000  0   -2669457.899  -5460784.144  -3250641.883
10 0 59572   7422.000000  0   -3002247.548  -5708904.102  -2428400.165
10 0 59572   7542.000000  0   -3286102.649  -5852067.229  -1563508.046
10 0 59572   7662.000000  0   -3514170.099  -5888601.529   -671132.217
10 0 59572   7782.000000  0   -3680560.624  -5818821.202    233048.184
10 0 59572   7902.000000  0   -3780491.666  -5645009.953   1133123.977
10 0 59572   8022.000000  0   -3810409.172  -5371364.421   2013244.824
10 0 59572   8142.000000  0   -3768084.337  -5003898.002   2857907.774
10 0 59572   8262.000000  0   -3652683.074  -4550308.709   3652238.024
10 0 59572   8382.000000  0   -3464806.733  -4019814.783   4382257.044
10 0 59572   8502.000000  0   -3206502.937  -3422961.267   5035132.121
10 0 59572   8622.000000  0   -2881246.865  -2771403.412   5599401.570
10 0 59572   8742.000000  0   -2493893.472  -2077673.305   6065172.919
10 0 59572   8862.000000  0   -2050602.491  -1354934.899   6424292.070
10 0 59572   8982.000000  0   -1558737.004   -616730.325   6670482.212
10 0 59572   9102.000000  0   -1026737.086    123276.946   6799445.716
10 0 59572   9222.000000  0    -463974.729    851553.544   6808932.998
10 0 59572   9342.000000  0     119410.997   1554943.026   6698780.197
10 0 59572   9462.000000  0     712696.406   2220903.467   6470912.034
10 0 59572   9582.000000  0    1304769.957   2837731.002   6129309.533
10 0 59572   9702.000000  0    1884339.358   3394765.962   5679944.916
10 0 59572   9822.000000  0    2440146.510   3882580.419   5130683.629
10 0 59572   9942.000000  0    2961187.967   4293143.016   4491152.699
10 0 59572  10062.000000  0    3436934.748   4619955.962   3772575.864
10 0 59572  10182.000000  0    3857546.750   4858163.417   2987581.724
10 0 59572  10302.000000  0    4214082.316   5004630.765   2149982.425
10 0 59572  10422.000000  0    4498689.098   5057985.177   1274524.981
10 0 59572  10542.000000  0    4704776.619   5018623.413    376628.507
10 0 59572  10662.000000  0    4827166.655   4888683.785   -527897.139
10 0 59572  10782.000000  0    4862212.821   4671979.419  -1423138.893
10 0 59572  10902.000000  0    4807890.712   4373899.074  -2293367.667
10 0 59572  11022.000000  0    4663855.481   4001277.818  -3123321.328
10 0 59572  11142.000000  0    4431464.913   3562240.099  -3898476.789
10 0 59572  11262.000000  0    4113767.289   3066020.044  -4605304.822
10 0 59572  11382.000000  0    3715456.881   2522763.610  -5231502.831
10 0 59572  11502.000000  0    3242798.373   1943317.868  -5766202.588
10 0 59572  11622.000000  0    2703521.204   1339012.374  -6200149.618
10 0 59572  11742.000000  0    2106687.260    721437.485  -6525851.751
10 0 59572  11862.000000  0    1462535.982    102224.572  -6737696.162
10 0 59572  11982.000000  0     782309.868   -507168.667  -6832037.386
10 0 59572  12102.000000  0      78059.469  -1095666.176  -6807253.370
10 0 59572  12222.000000  0    -637565.244  -1652769.216  -6663768.500
10 0 59572  12342.000000  0   -1351535.925  -2168738.353  -6404047.987
10 0 59572  12462.000000  0   -2050677.808  -2634761.117  -6032560.584
10 0 59572  12582.000000  0   -2721907.288  -3043101.049  -5555709.378
10 0 59572  12702.000000  0   -3352473.383  -3387227.267  -4981733.412
10 0 59572  12822.000000  0   -3930200.726  -3661923.064  -4320577.102
10 0 59572  12942.000000  0   -4443727.110  -3863369.165  -3583728.089
10 0 59572  13062.000000  0   -4882731.716  -3989200.855  -2784026.618
10 0 59572  13182.000000  0   -5238149.066  -4038537.183  -1935447.151
10 0 59572  13302.000000  0   -5502362.682  -4011980.362  -1052855.709
10 0 59572  13422.000000  0   -5669373.676  -3911585.274   -151747.625
10 0 59572  13542.000000  0   -5734939.753  -3740799.352    752029.591
10 0 59572  13662.000000  0   -5696680.355  -3504374.158   1642563.600
10 0 59572  13782.000000  0   -5554143.129  -3208248.933   2504167.562
10 0 59572  13902.000000  0   -5308831.000  -2859410.249   3321664.780
10 0 59572  14022.000000  0   -4964190.107  -2465732.607   4080663.230
10 0 59572  14142.000000  0   -4525557.758  -2035801.968   4767814.250
10 0 59572  14262.000000  0   -4000072.605  -1578728.358   5371047.589
10 0 59572  14382.000000  0   -3396551.814  -1103953.299   5879781.066
10 0 59572  14502.000000  0   -2725336.532   -621054.486   6285103.743
10 0 59572  14622.000000  0   -1998107.198   -139551.427   6579927.312
10 0 59572  14742.000000  0   -1227674.437    331281.769   6759102.463
10 0 59572  14862.000000  0    -427751.372    782593.024   6819502.887
10 0 59572  14982.000000  0     387290.633   1206117.731   6760076.339
10 0 59572  15102.000000  0    1202679.387   1594329.789   6581861.938
10 0 59572  15222.000000  0    2003508.956   1940575.697   6287972.710
10 0 59572  15342.000000  0    2775011.276   2239188.611   5883544.473
10 0 59572  15462.000000  0    3502829.700   2485582.176   5375652.339
10 0 59572  15582.000000  0    4173289.629   2676322.142   4773192.576
10 0 59572  15702.000000  0    4773659.212   2809174.850   4086732.483
10 0 59572  15822.000000  0    5292398.812   2883131.555   3328330.993
10 0 59572  15942.000000  0    5719392.718   2898406.055   2511326.007
10 0 59572  16062.000000  0    6046152.160   2856406.562   1650098.897
10 0 59572  16182.000000  0    6265991.892   2759683.889    759817.393
10 0 59572  16302.000000  0    6374171.329   2611854.493   -143839.433
10 0 59572  16422.000000  0    6367995.865   2417500.534  -1044966.850
99
